COSMOS 2433 (720)       
1 32275U 07052A   23302.40503323 -.00000064  00000+0  00000+0 0  9992
2 32275  66.0069 348.1041 0005263 242.0302 117.9858  2.13104034124563
COSMOS 2432 (719)       
1 32276U 07052B   23302.44017869 -.00000064  00000+0  00000+0 0  9992
2 32276  66.0214 348.2127 0010156 311.5605  22.3077  2.13103196124589
COSMOS 2434 (721)       
1 32393U 07065A   23302.19961302  .00000007  00000+0  00000+0 0  9994
2 32393  64.3310 224.4434 0002301  69.2166  24.5674  2.13103038123272
COSMOS 2436 (723)       
1 32395U 07065C   23302.60896661  .00000010  00000+0  00000+0 0  9991
2 32395  64.3396 224.4917 0016450 359.9015 183.3744  2.13102673123238
COSMOS 2456 (730)       
1 36111U 09070A   23302.77065336  .00000028  00000+0  00000+0 0  9993
2 36111  64.5149 103.9023 0001229 329.0942   1.1373  2.13099059107937
COSMOS 2457 (733)       
1 36112U 09070B   23302.72131660  .00000028  00000+0  00000+0 0  9993
2 36112  64.4989 103.7680 0006573 149.2356 274.3693  2.13101245107945
COSMOS 2460 (732)       
1 36402U 10007C   23302.80487554 -.00000065  00000+0  00000+0 0  9994
2 36402  65.8681 346.7968 0002345 244.8682 231.8833  2.13106217106246
COSMOS 2476 (744)       
1 37867U 11064A   23303.20829081  .00000028  00000+0  00000+0 0  9992
2 37867  64.7937 105.4357 0021600 230.0766 345.6826  2.13101674 93334
COSMOS 2477 (745)       
1 37868U 11064B   23302.62486531  .00000032  00000+0  00000+0 0  9992
2 37868  64.8008 105.5255 0018789 230.1016  75.9328  2.13101521 93269
COSMOS 2475 (743)       
1 37869U 11064C   23302.74166148  .00000031  00000+0  00000+0 0  9994
2 37869  64.8081 105.5343 0022712 248.4610 105.7136  2.13101797 93277
COSMOS 2485 (747)       
1 39155U 13019A   23302.86894309  .00000031  00000+0  00000+0 0  9996
2 39155  64.9535 105.9826 0022132 226.1080 133.7133  2.13101783 81799
COSMOS 2492 (754)       
1 39620U 14012A   23302.35525594 -.00000063  00000+0  00000+0 0  9994
2 39620  65.7515 346.4224 0013325 310.7501  49.2033  2.13103077 74744
COSMOS 2500 (755)       
1 40001U 14032A   23302.53781297 -.00000064  00000+0  00000+0 0  9996
2 40001  65.6897 346.2395 0008588 213.7668 146.2466  2.13105887 72960
COSMOS 2501 (702K)      
1 40315U 14075A   23302.31910833  .00000008  00000+0  00000+0 0  9994
2 40315  63.6339 223.7450 0018964 208.5409 151.3753  2.13101199 69359
COSMOS 2514 (751)       
1 41330U 16008A   23302.76985866 -.00000065  00000+0  00000+0 0  9991
2 41330  65.4863 345.7990 0012549 217.5666 142.4129  2.13102563 60132
COSMOS 2522 (752)       
1 42939U 17055A   23303.08063892  .00000012  00000+0  00000+0 0  9993
2 42939  64.0946 224.6765 0007747 241.4961 118.4484  2.13101973 47493
COSMOS 2527 (756)       
1 43508U 18053A   23302.10078344  .00000039  00000+0  00000+0 0  9994
2 43508  65.1141 106.1125 0007808 213.2330 146.7261  2.13102376 41774
COSMOS 2529 (757)       
1 43687U 18086A   23302.20013059  .00000006  00000+0  00000+0 0  9995
2 43687  64.3100 225.1569 0009464 264.7566  95.1518  2.13101993 38787
COSMOS 2534 (758)       
1 44299U 19030A   23303.00069017  .00000012  00000+0  00000+0 0  9996
2 44299  64.3827 225.0613 0011840 286.1517 102.1614  2.13101820 34430
COSMOS 2544 (759)       
1 44850U 19088A   23302.98308545  .00000031  00000+0  00000+0 0  9991
2 44850  65.1008 105.9246 0011392 247.4400 112.4429  2.13102147 30217
COSMOS 2545 (760)       
1 45358U 20018A   23302.71074660 -.00000066  00000+0  00000+0 0  9998
2 45358  64.8266 346.0010 0011713 245.3199 114.6250  2.13102530 28173
COSMOS 2547 (705K)      
1 46805U 20075A   23301.96094585  .00000005  00000+0  00000+0 0  9995
2 46805  64.6104 224.6689 0007143 242.5703 117.3730  2.13102750 23403
COSMOS 2557 (706K)      
1 52984U 22075A   23302.12384755 -.00000066  00000+0  00000+0 0  9990
2 52984  64.7452 348.1749 0013486 276.2384  83.6765  2.13102121 10210
COSMOS 2559 (707K)      
1 54031U 22130A   23302.53527538 -.00000068  00000+0  00000+0 0  9992
2 54031  64.7164 348.2862 0007949 227.4992 132.5013  2.13101381  8193
COSMOS 2564 (761)       
1 54377U 22161A   23302.72808421  .00000010  00000+0  00000+0 0  9999
2 54377  64.7512 224.7061 0009080 221.1057 138.8462  2.13102130  7147
COSMOS 2569 (703K)      
1 57517U 23114A   23301.80880529  .00000040  00000+0  00000+0 0  9997
2 57517  64.8236 105.1981 0008620 294.6313  65.2872  2.13104050  1754
